AQUA                    
1 27424U 02022A   26170.85395465  .00000565  00000+0  12222-3 0  9993
2 27424  98.4277 140.1900 0001000  54.7538 335.1578 14.62161415283664
ARIRANG-2 (KOMPSAT-2)   
1 29268U 06031A   26170.83250223  .00000271  00000+0  59373-4 0  9998
2 29268  97.8306 355.1507 0015883  67.0907  56.9967 14.64661564 61868
ARIRANG-3 (KOMPSAT-3)   
1 38338U 12025B   26170.83836321  .00000325  00000+0  73767-4 0  9998
2 38338  98.1172 128.2525 0006743 102.7402 257.4554 14.62208082751734
ARIRANG-5 (KOMPSAT-5)   
1 39227U 13042A   26170.82647267  .00000508  00000+0  40624-4 0  9993
2 39227  97.6201 357.4899 0005432 114.3542 245.8251 15.04495283704255
ALOS-2                  
1 39766U 14029A   26170.84448184  .00001311  00000+0  18236-3 0  9992
2 39766  97.9222 267.9701 0001677  90.9592 269.1812 14.79476609651971
ASNARO                  
1 40298U 14070A   26170.85936323  .00005157  00000+0  24621-3 0  9995
2 40298  97.3448 246.9011 0005903 156.3416 203.8091 15.19464609644413
ALSAT-1B                
1 41785U 16059C   26170.82278784  .00000182  00000+0  36286-4 0  9997
2 41785  97.7746 179.4730 0008297 210.3942 149.6786 14.72276135520966
ARKTIKA-M 1             
1 47719U 21016A   26168.49069990 -.00000210  00000+0  00000+0 0  9999
2 47719  63.2922  57.5948 7288528 269.9420  14.6012  2.00622504 38796
ARKTIKA-M 2             
1 58584U 23198A   26168.75920439  .00000145  00000+0  00000+0 0  9993
2 58584  63.2243 154.2920 6902344 267.4286  18.7609  2.00612717 18330
ALOS-4 (DAICHI-4)       
1 60182U 24123A   26170.79620258  .00001084  00000+0  15205-3 0  9992
2 60182  97.9248 267.9336 0001624  96.9985 263.1411 14.79472749106260
